VSP RF A1               
1 59135U 24043AP  26066.03073316  .00000577  00000+0  25199-4 0  9997
2 59135  97.5247 201.5379 0009431 234.6315 125.4042 15.26179596111403
STARLINK-35438          
1 66347U 25253AE  26068.46508853  .00017131  00000+0  63054-3 0  9997
2 66347  43.0014 213.4659 0001695 255.7018 104.3646 15.27582677 20218
